STARLINK-11363 [DTC]    
1 62012U 24213E   25139.14058113  .00267286  00000+0  21281-2 0  9992
2 62012  53.1564  53.2282 0001590  76.6900 283.4295 15.69853007 29662
STARLINK-11377 [DTC]    
1 62013U 24213F   25139.13569046  .00216979  00000+0  17435-2 0  9993
2 62013  53.1567  53.2012 0001329  87.6852 272.4318 15.69791199 29864
STARLINK-11385 [DTC]    
1 62014U 24213G   25139.16021729  .00146899  00000+0  11927-2 0  9991
2 62014  53.1568  53.3604 0000893  57.9152 302.1952 15.69777124 29656
STARLINK-11396 [DTC]    
1 62015U 24213H   25138.99854928  .00216000  00000+0  17397-2 0  9996
2 62015  53.1566  53.7560 0001318  42.7917 317.3203 15.69737818 29477
STARLINK-11393 [DTC]    
1 62016U 24213J   25139.18464394  .00190549  00000+0  15368-2 0  9998
2 62016  53.1558  52.7841 0001167  65.7757 294.3383 15.69788509 29600
STARLINK-11343 [DTC]    
1 62017U 24213K   25139.21898220  .00157723  00000+0  12791-2 0  9996
2 62017  53.1575  53.0131 0001183  50.0680 310.0441 15.69766746 29875
STARLINK-11411 [DTC]    
1 62018U 24213L   25138.89082950  .00220311  00000+0  17720-2 0  9996
2 62018  53.1564  54.5196 0001159  60.0668 300.0465 15.69756830 28610
STARLINK-11404 [DTC]    
1 62019U 24213M   25139.11126547  .00126014  00000+0  10269-2 0  9990
2 62019  53.1566  53.7699 0001180 113.6023 246.5118 15.69765408 29640
STARLINK-11378 [DTC]    
1 62020U 24213N   25139.17973426  .00206139  00000+0  16575-2 0  9997
2 62020  53.1562  52.7510 0000818  50.9818 309.1272 15.69810246 29605
STARLINK-32520          
1 62021U 24213P   25139.14147078  .00032812  00000+0  11149-2 0  9998
2 62021  53.1589  96.5916 0001169 100.0384 260.0749 15.30205147 29268
STARLINK-32539          
1 62022U 24213Q   25139.22316871  .00042045  00000+0  10301-2 0  9995
2 62022  53.1576  84.1314 0001258 138.1000 222.0101 15.40355773 29055
STARLINK-32334          
1 62023U 24213R   25139.15087517  .00066119  00000+0  22243-2 0  9996
2 62023  53.1589  95.9413 0001512 100.3309 259.7862 15.30205987 29259
STARLINK-32504          
1 62024U 24213S   25138.90648014  .00019835  00000+0  67987-3 0  9992
2 62024  53.1580  97.2684 0001718  98.1436 261.9759 15.30207247 28024
STARLINK-32493          
1 62025U 24213T   25139.20045159  .00024439  00000+0  83437-3 0  9992
2 62025  53.1607  96.2497 0001298  97.4109 262.7039 15.30207390 29286
STARLINK-32561          
1 62026U 24213U   25139.17407035  .00021000  00000+0  71902-3 0  9999
2 62026  53.1574  96.0869 0001323  89.0018 271.1134 15.30205090 29281
STARLINK-32512          
1 62027U 24213V   25138.89698156  .00023566  00000+0  80530-3 0  9990
2 62027  53.1571  97.1977 0001295 107.0513 253.0629 15.30198042 28027
STARLINK-32637          
1 62032U 24216A   25139.22226647  .00063370  00000+0  15090-2 0  9994
2 62032  42.9998 124.2602 0000614 228.6942 131.3861 15.40754145 28691
STARLINK-32582          
1 62033U 24216B   25138.65951837  .00021784  00000+0  79832-3 0  9995
2 62033  42.9974 129.5018 0001914 279.5663  80.4972 15.27599436 28674
STARLINK-32615          
1 62034U 24216C   25139.00985732  .00051757  00000+0  12369-2 0  9991
2 62034  42.9988 125.2430 0000539 248.0214 112.0586 15.40724044 28680
STARLINK-32592          
1 62035U 24216D   25138.68522662  .00027135  00000+0  99175-3 0  9998
2 62035  42.9965 129.6955 0000324 267.5319  92.5495 15.27586487 28683
STARLINK-32225          
1 62036U 24216E   25139.01882524  .00053966  00000+0  12888-2 0  9999
2 62036  42.9997 125.3105 0001338 233.6280 126.4453 15.40728839 28827
STARLINK-32595          
1 62037U 24216F   25139.00058745 -.00000251  00000+0  39385-6 0  9994
2 62037  42.9979 127.7627 0000511 202.1081 157.9748 15.27551798 28734
STARLINK-32477          
1 62038U 24216G   25139.22898411  .00043992  00000+0  10529-2 0  9994
2 62038  43.0002 124.3118 0000503 241.9813 118.0993 15.40741098 28703
STARLINK-32480          
1 62039U 24216H   25139.00313484  .00043046  00000+0  10312-2 0  9993
2 62039  43.0002 125.1907 0000652 267.2425  92.8357 15.40721497 28573
STARLINK-32510          
1 62040U 24216J   25138.96090418  .00021685  00000+0  79517-3 0  9996
2 62040  42.9982 128.3202 0001042 179.1021 180.9832 15.27582593 28642
STARLINK-32456          
1 62041U 24216K   25139.01433829  .00040049  00000+0  96024-3 0  9998
2 62041  43.0014 125.2782 0001217 283.5382  76.5339 15.40722718 28578
STARLINK-32509          
1 62042U 24216L   25139.02330067  .00053877  00000+0  12872-2 0  9991
2 62042  42.9994 125.3444 0001447 248.2999 111.7704 15.40716750 28721
STARLINK-32491          
1 62043U 24216M   25138.69550499  .00005648  00000+0  21453-3 0  9996
2 62043  43.0007 129.7705 0000222  72.3389 287.7487 15.27591750 28678
STARLINK-32577          
1 62044U 24216N   25138.99289923  .00035075  00000+0  12769-2 0  9997
2 62044  42.9981 127.7003 0001770 250.9480 109.1180 15.27609963 28743
STARLINK-32618          
1 62045U 24216P   25139.00537806  .00051213  00000+0  12246-2 0  9999
2 62045  42.9959 125.2043 0001019 264.9603  95.1137 15.40710616 28574
STARLINK-32598          
1 62046U 24216Q   25138.24310075  .00033813  00000+0  81302-3 0  9998
2 62046  42.9999 129.8106 0001707 293.6788  66.3890 15.40703475 28634
STARLINK-32630          
1 62047U 24216R   25139.00444993  .00026643  00000+0  97437-3 0  9990
2 62047  42.9956 127.7897 0000373 321.2129  38.8695 15.27574391 28654
STARLINK-32599          
1 62048U 24216S   25139.00830489  .00036646  00000+0  13341-2 0  9995
2 62048  42.9982 127.8178 0002251 288.3323  71.7283 15.27591558 28690
STARLINK-32473          
1 62049U 24216T   25139.00761975  .00028274  00000+0  68142-3 0  9997
2 62049  42.9967 125.2207 0001059 250.8384 109.2358 15.40708086 27594
STARLINK-32492          
1 62050U 24216U   25138.98259835  .00036187  00000+0  13174-2 0  9998
2 62050  42.9988 127.6247 0003100 282.3784  77.6721 15.27594733 27579
STARLINK-32496          
1 62051U 24216V   25139.01857972  .00032175  00000+0  11729-2 0  9997
2 62051  42.9953 127.8924 0000978 152.1612 207.9292 15.27601210 27569
STARLINK-32495          
1 62052U 24216W   25139.22616080  .00018034  00000+0  66338-3 0  9999
2 62052  43.0033 126.0196 0001579 286.2588  73.8090 15.27574571 27602
STARLINK-32494          
1 62053U 24216X   25138.99031460  .00021329  00000+0  78229-3 0  9999
2 62053  42.9946 127.6826 0000691 269.4653  90.6120 15.27582978 27578
STARLINK-32408          
1 62054U 24216Y   25139.02554112  .00057716  00000+0  13767-2 0  9993
2 62054  42.9985 125.3577 0001330 237.0070 123.0659 15.40739292 27593
STARLINK-32571          
1 62055U 24216Z   25138.69244040  .00049074  00000+0  11744-2 0  9993
2 62055  42.9967 127.1611 0000680  32.6302 327.4597 15.40702324 28809
STARLINK-11465 [DTC]    
1 62057U 24217A   25139.20180422  .00146120  00000+0  11876-2 0  9993
2 62057  53.1558  82.7761 0001356  88.6292 271.4882 15.69754942 28925
STARLINK-11426 [DTC]    
1 62058U 24217B   25139.13322051  .00195362  00000+0  15773-2 0  9994
2 62058  53.1564  83.0556 0001092  82.5959 277.5182 15.69746747 28855
STARLINK-11454 [DTC]    
1 62059U 24217C   25139.10389237  .00238663  00000+0  19142-2 0  9997
2 62059  53.1567  83.5954 0001636  42.9881 317.1264 15.69766179 28914
STARLINK-11473 [DTC]    
1 62060U 24217D   25139.11369951  .00239453  00000+0  19202-2 0  9996
2 62060  53.1570  83.6614 0000897  92.4267 267.6854 15.69767699 28912
STARLINK-11429 [DTC]    
1 62061U 24217E   25139.22630843  .00051408  00000+0  42495-3 0  9993
2 62061  53.1563  82.9346 0005673 162.8201 197.3010 15.69784236 28926
STARLINK-11470 [DTC]    
1 62062U 24217F   25139.22141924  .00108058  00000+0  88395-3 0  9994
2 62062  53.1559  82.9003 0001803 102.2652 257.8568 15.69743515 28869
STARLINK-11427 [DTC]    
1 62063U 24217G   25139.10879523  .00230139  00000+0  18455-2 0  9990
2 62063  53.1572  83.6292 0001071  52.7401 307.3714 15.69797714 28900
STARLINK-11456 [DTC]    
1 62064U 24217H   25139.14303504  .00219654  00000+0  17660-2 0  9992
2 62064  53.1566  83.1190 0002841  27.8125 332.3044 15.69767306 28917
STARLINK-11474 [DTC]    
1 62065U 24217J   25139.12831743  .00205968  00000+0  16596-2 0  9992
2 62065  53.1565  83.0210 0001097  55.8814 304.2308 15.69760227 28913
STARLINK-11463 [DTC]    
1 62066U 24217K   25139.21651213  .00112949  00000+0  92223-3 0  9993
2 62066  53.1568  82.8696 0000890  70.6167 289.4947 15.69769368 28916
STARLINK-11472 [DTC]    
1 62067U 24217L   25139.18717674  .00102555  00000+0  83925-3 0  9995
2 62067  53.1562  83.4131 0002394 138.4138 221.7062 15.69756513 28852
STARLINK-11467 [DTC]    
1 62068U 24217M   25139.21160794  .00085432  00000+0  70173-3 0  9990
2 62068  53.1567  82.8370 0001557  90.3528 269.7669 15.69745475 28912
STARLINK-11460 [DTC]    
1 62069U 24217N   25139.11860598  .00235299  00000+0  18849-2 0  9998
2 62069  53.1568  83.6906 0001868  30.2815 329.8311 15.69806528 28846
STARLINK-32604          
1 62070U 24217P   25139.15945058  .00031299  00000+0  10649-2 0  9993
2 62070  53.1581 122.2311 0001182  88.8667 271.2469 15.30185211 28320
STARLINK-32553          
1 62071U 24217Q   25139.22372259  .00005925  00000+0  21239-3 0  9994
2 62071  53.1580 121.9255 0001186  97.7539 262.3596 15.30141524 28370
STARLINK-32603          
1 62072U 24217R   25138.88553149  .00014104  00000+0  48743-3 0  9993
2 62072  53.1592 123.3644 0001363  85.1921 274.9235 15.30198943 28337
STARLINK-32444          
1 62073U 24217S   25139.20577540  .00032806  00000+0  11146-2 0  9997
2 62073  53.1602 121.8303 0001078  88.4323 271.6801 15.30208057 28331
STARLINK-32619          
1 62074U 24217T   25139.22899224  .00023033  00000+0  78737-3 0  9998
2 62074  53.1579 121.9523 0001017  64.4921 295.6185 15.30199961 28335
STARLINK-32580          
1 62075U 24217U   25139.18201170  .00047041  00000+0  11780-2 0  9990
2 62075  53.1574 118.8238 0000701  91.7234 268.3851 15.39639401 28376
